CCSDS_OMM_VERS = 2.0
CREATION_DATE  = 
ORIGINATOR     = 

OBJECT_NAME    = STARLINK-34694
OBJECT_ID      = 2025-243N
CENTER_NAME    = EARTH
REF_FRAME      = TEME
TIME_SYSTEM    = UTC
MEAN_ELEMENT_THEORY = SGP/SGP4

EPOCH          = 2025-11-13T13:52:49.950624
MEAN_MOTION    = 15.74337445
ECCENTRICITY   = .00012759
INCLINATION    = 53.1573
RA_OF_ASC_NODE = 66.9373
ARG_OF_PERICENTER = 69.8546
MEAN_ANOMALY   = 290.2611

EPHEMERIS_TYPE = 0
CLASSIFICATION_TYPE = U
NORAD_CAT_ID   = 66189
ELEMENT_SET_NO = 999
REV_AT_EPOCH   = 284
BSTAR          = .24031013E-2
MEAN_MOTION_DOT = .369556E-2
MEAN_MOTION_DDOT = 0

CCSDS_OMM_VERS = 2.0
CREATION_DATE  = 
ORIGINATOR     = 

OBJECT_NAME    = STARLINK-34863
OBJECT_ID      = 2025-243P
CENTER_NAME    = EARTH
REF_FRAME      = TEME
TIME_SYSTEM    = UTC
MEAN_ELEMENT_THEORY = SGP/SGP4

EPOCH          = 2025-11-13T13:54:46.769472
MEAN_MOTION    = 15.74319902
ECCENTRICITY   = .00011732
INCLINATION    = 53.1577
RA_OF_ASC_NODE = 66.9453
ARG_OF_PERICENTER = 72.9784
MEAN_ANOMALY   = 287.1364

EPHEMERIS_TYPE = 0
CLASSIFICATION_TYPE = U
NORAD_CAT_ID   = 66190
ELEMENT_SET_NO = 999
REV_AT_EPOCH   = 284
BSTAR          = .1978941E-2
MEAN_MOTION_DOT = .301506E-2
MEAN_MOTION_DDOT = 0

CCSDS_OMM_VERS = 2.0
CREATION_DATE  = 
ORIGINATOR     = 

OBJECT_NAME    = STARLINK-35061
OBJECT_ID      = 2025-243Q
CENTER_NAME    = EARTH
REF_FRAME      = TEME
TIME_SYSTEM    = UTC
MEAN_ELEMENT_THEORY = SGP/SGP4

EPOCH          = 2025-11-13T13:49:54.655392
MEAN_MOTION    = 15.74349246
ECCENTRICITY   = .00008297
INCLINATION    = 53.1575
RA_OF_ASC_NODE = 66.9232
ARG_OF_PERICENTER = 74.3916
MEAN_ANOMALY   = 285.7196

EPHEMERIS_TYPE = 0
CLASSIFICATION_TYPE = U
NORAD_CAT_ID   = 66191
ELEMENT_SET_NO = 999
REV_AT_EPOCH   = 284
BSTAR          = .25941323E-2
MEAN_MOTION_DOT = .400702E-2
MEAN_MOTION_DDOT = 0

CCSDS_OMM_VERS = 2.0
CREATION_DATE  = 
ORIGINATOR     = 

OBJECT_NAME    = STARLINK-34937
OBJECT_ID      = 2025-243R
CENTER_NAME    = EARTH
REF_FRAME      = TEME
TIME_SYSTEM    = UTC
MEAN_ELEMENT_THEORY = SGP/SGP4

EPOCH          = 2025-11-13T13:50:23.810208
MEAN_MOTION    = 15.74357717
ECCENTRICITY   = .0003388
INCLINATION    = 53.1577
RA_OF_ASC_NODE = 66.9250
ARG_OF_PERICENTER = 96.4944
MEAN_ANOMALY   = 263.6462

EPHEMERIS_TYPE = 0
CLASSIFICATION_TYPE = U
NORAD_CAT_ID   = 66192
ELEMENT_SET_NO = 999
REV_AT_EPOCH   = 284
BSTAR          = .249902E-2
MEAN_MOTION_DOT = .385412E-2
MEAN_MOTION_DDOT = 0

CCSDS_OMM_VERS = 2.0
CREATION_DATE  = 
ORIGINATOR     = 

OBJECT_NAME    = STARLINK-35197
OBJECT_ID      = 2025-243S
CENTER_NAME    = EARTH
REF_FRAME      = TEME
TIME_SYSTEM    = UTC
MEAN_ELEMENT_THEORY = SGP/SGP4

EPOCH          = 2025-11-13T13:50:53.194848
MEAN_MOTION    = 15.74297188
ECCENTRICITY   = .00014156
INCLINATION    = 53.1580
RA_OF_ASC_NODE = 66.9275
ARG_OF_PERICENTER = 60.2208
MEAN_ANOMALY   = 299.8953

EPHEMERIS_TYPE = 0
CLASSIFICATION_TYPE = U
NORAD_CAT_ID   = 66193
ELEMENT_SET_NO = 999
REV_AT_EPOCH   = 284
BSTAR          = .16076288E-2
MEAN_MOTION_DOT = .242856E-2
MEAN_MOTION_DDOT = 0

CCSDS_OMM_VERS = 2.0
CREATION_DATE  = 
ORIGINATOR     = 

OBJECT_NAME    = STARLINK-35374
OBJECT_ID      = 2025-243T
CENTER_NAME    = EARTH
REF_FRAME      = TEME
TIME_SYSTEM    = UTC
MEAN_ELEMENT_THEORY = SGP/SGP4

EPOCH          = 2025-11-13T13:51:22.262400
MEAN_MOTION    = 15.74329563
ECCENTRICITY   = .00009905
INCLINATION    = 53.1578
RA_OF_ASC_NODE = 66.9297
ARG_OF_PERICENTER = 65.9848
MEAN_ANOMALY   = 294.1275

EPHEMERIS_TYPE = 0
CLASSIFICATION_TYPE = U
NORAD_CAT_ID   = 66194
ELEMENT_SET_NO = 999
REV_AT_EPOCH   = 284
BSTAR          = .21082931E-2
MEAN_MOTION_DOT = .322193E-2
MEAN_MOTION_DDOT = 0

CCSDS_OMM_VERS = 2.0
CREATION_DATE  = 
ORIGINATOR     = 

OBJECT_NAME    = STARLINK-34813
OBJECT_ID      = 2025-243U
CENTER_NAME    = EARTH
REF_FRAME      = TEME
TIME_SYSTEM    = UTC
MEAN_ELEMENT_THEORY = SGP/SGP4

EPOCH          = 2025-11-13T13:51:51.580512
MEAN_MOTION    = 15.74300344
ECCENTRICITY   = .00010724
INCLINATION    = 53.1578
RA_OF_ASC_NODE = 66.9325
ARG_OF_PERICENTER = 57.6544
MEAN_ANOMALY   = 302.4580

EPHEMERIS_TYPE = 0
CLASSIFICATION_TYPE = U
NORAD_CAT_ID   = 66195
ELEMENT_SET_NO = 999
REV_AT_EPOCH   = 284
BSTAR          = .17415603E-2
MEAN_MOTION_DOT = .263842E-2
MEAN_MOTION_DDOT = 0

CCSDS_OMM_VERS = 2.0
CREATION_DATE  = 
ORIGINATOR     = 

OBJECT_NAME    = STARLINK-35409
OBJECT_ID      = 2025-243V
CENTER_NAME    = EARTH
REF_FRAME      = TEME
TIME_SYSTEM    = UTC
MEAN_ELEMENT_THEORY = SGP/SGP4

EPOCH          = 2025-11-13T13:52:20.994528
MEAN_MOTION    = 15.74274754
ECCENTRICITY   = .00012145
INCLINATION    = 53.1577
RA_OF_ASC_NODE = 66.9349
ARG_OF_PERICENTER = 76.3747
MEAN_ANOMALY   = 283.7408

EPHEMERIS_TYPE = 0
CLASSIFICATION_TYPE = U
NORAD_CAT_ID   = 66196
ELEMENT_SET_NO = 999
REV_AT_EPOCH   = 284
BSTAR          = .14158377E-2
MEAN_MOTION_DOT = .212832E-2
MEAN_MOTION_DDOT = 0

CCSDS_OMM_VERS = 2.0
CREATION_DATE  = 
ORIGINATOR     = 

OBJECT_NAME    = STARLINK-35518
OBJECT_ID      = 2025-243X
CENTER_NAME    = EARTH
REF_FRAME      = TEME
TIME_SYSTEM    = UTC
MEAN_ELEMENT_THEORY = SGP/SGP4

EPOCH          = 2025-11-13T13:53:19.353408
MEAN_MOTION    = 15.74305007
ECCENTRICITY   = .00009893
INCLINATION    = 53.1578
RA_OF_ASC_NODE = 66.9395
ARG_OF_PERICENTER = 65.6070
MEAN_ANOMALY   = 294.5053

EPHEMERIS_TYPE = 0
CLASSIFICATION_TYPE = U
NORAD_CAT_ID   = 66197
ELEMENT_SET_NO = 999
REV_AT_EPOCH   = 284
BSTAR          = .20311818E-2
MEAN_MOTION_DOT = .309586E-2
MEAN_MOTION_DDOT = 0

CCSDS_OMM_VERS = 2.0
CREATION_DATE  = 
ORIGINATOR     = 

OBJECT_NAME    = STARLINK-35259
OBJECT_ID      = 2025-243W
CENTER_NAME    = EARTH
REF_FRAME      = TEME
TIME_SYSTEM    = UTC
MEAN_ELEMENT_THEORY = SGP/SGP4

EPOCH          = 2025-11-13T13:43:34.959360
MEAN_MOTION    = 15.74313442
ECCENTRICITY   = .00009778
INCLINATION    = 53.1581
RA_OF_ASC_NODE = 66.8914
ARG_OF_PERICENTER = 78.5070
MEAN_ANOMALY   = 281.6060

EPHEMERIS_TYPE = 0
CLASSIFICATION_TYPE = U
NORAD_CAT_ID   = 66198
ELEMENT_SET_NO = 999
REV_AT_EPOCH   = 284
BSTAR          = .18593041E-2
MEAN_MOTION_DOT = .282517E-2
MEAN_MOTION_DDOT = 0

CCSDS_OMM_VERS = 2.0
CREATION_DATE  = 
ORIGINATOR     = 

OBJECT_NAME    = STARLINK-35509
OBJECT_ID      = 2025-243Y
CENTER_NAME    = EARTH
REF_FRAME      = TEME
TIME_SYSTEM    = UTC
MEAN_ELEMENT_THEORY = SGP/SGP4

EPOCH          = 2025-11-13T13:43:05.773440
MEAN_MOTION    = 15.74330001
ECCENTRICITY   = .0001459
INCLINATION    = 53.1580
RA_OF_ASC_NODE = 66.8896
ARG_OF_PERICENTER = 69.3094
MEAN_ANOMALY   = 290.8082

EPHEMERIS_TYPE = 0
CLASSIFICATION_TYPE = U
NORAD_CAT_ID   = 66199
ELEMENT_SET_NO = 999
REV_AT_EPOCH   = 284
BSTAR          = .20899802E-2
MEAN_MOTION_DOT = .319276E-2
MEAN_MOTION_DDOT = 0

CCSDS_OMM_VERS = 2.0
CREATION_DATE  = 
ORIGINATOR     = 

OBJECT_NAME    = STARLINK-35551
OBJECT_ID      = 2025-243Z
CENTER_NAME    = EARTH
REF_FRAME      = TEME
TIME_SYSTEM    = UTC
MEAN_ELEMENT_THEORY = SGP/SGP4

EPOCH          = 2025-11-13T13:44:04.223904
MEAN_MOTION    = 15.74309084
ECCENTRICITY   = .00009226
INCLINATION    = 53.1582
RA_OF_ASC_NODE = 66.8944
ARG_OF_PERICENTER = 72.0628
MEAN_ANOMALY   = 288.0492

EPHEMERIS_TYPE = 0
CLASSIFICATION_TYPE = U
NORAD_CAT_ID   = 66200
ELEMENT_SET_NO = 999
REV_AT_EPOCH   = 284
BSTAR          = .1831423E-2
MEAN_MOTION_DOT = .27807E-2
MEAN_MOTION_DDOT = 0

