STARLINK-34694          
1 66189U 25243N   25317.57835591  .00369556  00000+0  24031-2 0  9992
2 66189  53.1573  66.9373 0001275  69.8546 290.2611 15.74337445  2841
STARLINK-34863          
1 66190U 25243P   25317.57970798  .00301506  00000+0  19789-2 0  9998
2 66190  53.1577  66.9453 0001173  72.9784 287.1364 15.74319902  2840
STARLINK-35061          
1 66191U 25243Q   25317.57632703  .00400702  00000+0  25941-2 0  9995
2 66191  53.1575  66.9232 0000829  74.3916 285.7196 15.74349246  2845
STARLINK-34937          
1 66192U 25243R   25317.57666447  .00385412  00000+0  24990-2 0  9991
2 66192  53.1577  66.9250 0003388  96.4944 263.6462 15.74357717  2840
STARLINK-35197          
1 66193U 25243S   25317.57700457  .00242856  00000+0  16076-2 0  9992
2 66193  53.1580  66.9275 0001415  60.2208 299.8953 15.74297188  2844
STARLINK-35374          
1 66194U 25243T   25317.57734100  .00322193  00000+0  21083-2 0  9992
2 66194  53.1578  66.9297 0000990  65.9848 294.1275 15.74329563  2843
STARLINK-34813          
1 66195U 25243U   25317.57768033  .00263842  00000+0  17416-2 0  9995
2 66195  53.1578  66.9325 0001072  57.6544 302.4580 15.74300344  2847
STARLINK-35409          
1 66196U 25243V   25317.57802077  .00212832  00000+0  14158-2 0  9996
2 66196  53.1577  66.9349 0001214  76.3747 283.7408 15.74274754  2849
STARLINK-35518          
1 66197U 25243X   25317.57869622  .00309586  00000+0  20312-2 0  9998
2 66197  53.1578  66.9395 0000989  65.6070 294.5053 15.74305007  2842
STARLINK-35259          
1 66198U 25243W   25317.57193240  .00282517  00000+0  18593-2 0  9997
2 66198  53.1581  66.8914 0000977  78.5070 281.6060 15.74313442  2840
STARLINK-35509          
1 66199U 25243Y   25317.57159460  .00319276  00000+0  20900-2 0  9992
2 66199  53.1580  66.8896 0001459  69.3094 290.8082 15.74330001  2845
STARLINK-35551          
1 66200U 25243Z   25317.57227111  .00278070  00000+0  18314-2 0  9996
2 66200  53.1582  66.8944 0000922  72.0628 288.0492 15.74309084  2843
